STARLINK-30891          
1 58367U 23177S   26171.27388656  .00002076  00000+0  84946-4 0  9990
2 58367  43.0042 131.4947 0001656 275.4813  84.5850 15.27577347143850
STARLINK-30889          
1 58368U 23177T   26171.27003427  .00000597  00000+0  31219-4 0  9992
2 58368  43.0032 131.4649 0000966 268.9415  91.1326 15.27577665143919
STARLINK-30870          
1 58369U 23177U   26171.21235833  .00000730  00000+0  36044-4 0  9995
2 58369  43.0029 131.8886 0001324 276.4469  83.6231 15.27577178143904
STARLINK-30888          
1 58370U 23177V   26171.23534317  .00000092  00000+0  12884-4 0  9995
2 58370  43.0020 131.1962 0001295 267.0364  93.0339 15.27575094143923
STARLINK-30859          
1 58371U 23177W   26171.28416582 -.00000284  00000+0 -80717-6 0  9991
2 58371  43.0036 131.5357 0001510 264.4877  95.5803 15.27568650143926
STARLINK-30884          
1 58372U 23177X   26171.28544663  .00001882  00000+0  77856-4 0  9995
2 58372  43.0029 131.5732 0001343 272.6498  87.4200 15.27591385143911
STARLINK-30852          
1 58373U 23177Y   26171.24176203  .00000640  00000+0  32763-4 0  9992
2 58373  43.0015 131.2207 0001185 272.3195  87.7521 15.27577721143913
STARLINK-30911          
1 58374U 23178A   26170.49525590 -.00000334  00000+0  12526-5 0  9994
2 58374  53.1589 246.4024 0001076  86.7444 273.3681 15.34395795145493
STARLINK-30894          
1 58375U 23178B   26169.94690689  .00000924  00000+0  38499-4 0  9995
2 58375  53.1594 249.3830 0001186  78.3488 281.7647 15.34391376145344
STARLINK-30910          
1 58376U 23178C   26171.22435336  .00002729  00000+0  91836-4 0  9995
2 58376  53.1600 243.1361 0001040  85.7463 274.3659 15.34412827145614
STARLINK-30914          
1 58377U 23178D   26170.49946452 -.00000055  00000+0  95082-5 0  9999
2 58377  53.1612 246.4194 0001400  97.0018 263.1143 15.34391956145501
STARLINK-30920          
1 58378U 23178E   26171.20000453  .00001592  00000+0  65878-4 0  9997
2 58378  53.1608 232.3559 0001140  90.8560 269.2572 15.30192157145769
STARLINK-30882          
1 58379U 23178F   26169.48464439 -.00000674  00000+0 -88133-5 0  9995
2 58379  53.1610 251.4738 0001301  95.8166 264.2985 15.34387970145340
STARLINK-30915          
1 58380U 23178G   26171.25048821  .00001391  00000+0  52344-4 0  9997
2 58380  53.1605 154.6136 0001252  97.8203 262.2942 15.34365487146825
STARLINK-30923          
1 58381U 23178H   26170.50177068  .00019971  00000+0  59796-3 0  9991
2 58381  53.1585 247.1165 0001510  14.6722 345.4324 15.34540292145425
STARLINK-30927          
1 58382U 23178J   26170.47010883  .00002639  00000+0  89259-4 0  9990
2 58382  53.1568 246.9564 0002098  85.6274 274.4969 15.34391549145479
STARLINK-30921          
1 58383U 23178K   26171.04159444  .00000387  00000+0  22624-4 0  9993
2 58383  53.1607 244.1263 0002306 131.1194 229.0008 15.34388676145567
STARLINK-30825          
1 58384U 23178L   26170.50156728 -.00000208  00000+0  49719-5 0  9994
2 58384  53.1608 246.4195 0001348 100.0963 260.0192 15.34390288145507
STARLINK-30930          
1 58385U 23178M   26170.48263966  .00001922  00000+0  68008-4 0  9999
2 58385  53.1589 246.3259 0000840  69.2678 290.8414 15.34396665145379
STARLINK-30929          
1 58386U 23178N   26170.48903361 -.00003527  00000+0 -93391-4 0  9998
2 58386  53.1587 246.8661 0001223  74.8786 285.2351 15.34373552145477
STARLINK-30898          
1 58387U 23178P   26170.54573407  .00000257  00000+0  18754-4 0  9995
2 58387  53.1592 246.5892 0001316  67.9630 292.1512 15.34388291145507
STARLINK-30913          
1 58388U 23178Q   26170.53102875 -.00000543  00000+0 -49483-5 0  9996
2 58388  53.1595 246.6226 0001019  99.9037 260.2081 15.34389085145508
STARLINK-30938          
1 58389U 23178R   26169.94105902  .00001076  00000+0  42985-4 0  9993
2 58389  53.1625 250.7550 0001415  97.1051 263.0113 15.34396869145397
STARLINK-30868          
1 58390U 23178S   26169.93848829  .00001349  00000+0  51065-4 0  9998
2 58390  53.1600 249.3301 0001253  84.4583 275.6563 15.34399534145412
STARLINK-30916          
1 58391U 23178T   26170.47429279 -.00001615  00000+0 -36682-4 0  9990
2 58391  53.1601 246.8799 0001049  96.0296 264.0826 15.34392016145490
STARLINK-30939          
1 58393U 23178V   26170.51419675  .00000545  00000+0  27269-4 0  9996
2 58393  53.1592 246.5220 0001221 105.5586 254.5552 15.34388892145371
STARLINK-30887          
1 58394U 23178W   26170.48480502 -.00000351  00000+0  74836-6 0  9990
2 58394  53.1605 246.8743 0001309  87.5941 272.5211 15.34389759145477
STARLINK-30934          
1 58395U 23178X   26171.18029343 -.00000372  00000+0  13430-6 0  9997
2 58395  53.1599 243.6397 0001039  94.3567 265.7554 15.34388692145536
MALLIGYONG-1            
1 58400U 23179A   26171.25795473  .00002390  00000+0  10554-3 0  9999
2 58400  97.3013  52.7188 0009144  29.0385 331.1358 15.22658106143220
STARLINK-30964          
1 58402U 23180A   26171.06743928 -.00002271  00000+0 -73034-4 0  9993
2 58402  43.0037 194.3502 0001758 274.4421  85.6230 15.27574697143282
