OBJECT_NAME,OBJECT_ID,EPOCH,MEAN_MOTION,ECCENTRICITY,INCLINATION,RA_OF_ASC_NODE,ARG_OF_PERICENTER,MEAN_ANOMALY,EPHEMERIS_TYPE,CLASSIFICATION_TYPE,NORAD_CAT_ID,ELEMENT_SET_NO,REV_AT_EPOCH,BSTAR,MEAN_MOTION_DOT,MEAN_MOTION_DDOT
STARLINK-30891,2023-177S,2026-06-20T06:34:23.798784,15.27577347,.00016561,43.0042,131.4947,275.4813,84.5850,0,U,58367,999,14385,.84945565E-4,.2076E-4,0
STARLINK-30889,2023-177T,2026-06-20T06:28:50.960928,15.27577665,.00009669,43.0032,131.4649,268.9415,91.1326,0,U,58368,999,14391,.31218554E-4,.597E-5,0
STARLINK-30870,2023-177U,2026-06-20T05:05:47.759712,15.27577178,.00013248,43.0029,131.8886,276.4469,83.6231,0,U,58369,999,14390,.36043969E-4,.73E-5,0
STARLINK-30888,2023-177V,2026-06-20T05:38:53.649888,15.27575094,.00012951,43.0020,131.1962,267.0364,93.0339,0,U,58370,999,14392,.12883939E-4,.92E-6,0
STARLINK-30859,2023-177W,2026-06-20T06:49:11.926848,15.27568650,.00015101,43.0036,131.5357,264.4877,95.5803,0,U,58371,999,14392,-.807167E-6,-.284E-5,0
STARLINK-30884,2023-177X,2026-06-20T06:51:02.588832,15.27591385,.00013436,43.0029,131.5732,272.6498,87.4200,0,U,58372,999,14391,.77855546E-4,.1882E-4,0
STARLINK-30852,2023-177Y,2026-06-20T05:48:08.239392,15.27577721,.00011851,43.0015,131.2207,272.3195,87.7521,0,U,58373,999,14391,.3276321E-4,.64E-5,0
STARLINK-30911,2023-178A,2026-06-19T11:53:10.109760,15.34395795,.00010761,53.1589,246.4024,86.7444,273.3681,0,U,58374,999,14549,.1252568E-5,-.334E-5,0
STARLINK-30894,2023-178B,2026-06-18T22:43:32.755296,15.34391376,.0001186,53.1594,249.3830,78.3488,281.7647,0,U,58375,999,14534,.38499E-4,.924E-5,0
STARLINK-30910,2023-178C,2026-06-20T05:23:04.130304,15.34412827,.00010406,53.1600,243.1361,85.7463,274.3659,0,U,58376,999,14561,.91835676E-4,.2729E-4,0
STARLINK-30914,2023-178D,2026-06-19T11:59:13.734528,15.34391956,.00014002,53.1612,246.4194,97.0018,263.1143,0,U,58377,999,14550,.9508158E-5,-.55E-6,0
STARLINK-30920,2023-178E,2026-06-20T04:48:00.391392,15.30192157,.00011408,53.1608,232.3559,90.8560,269.2572,0,U,58378,999,14576,.6587816E-4,.1592E-4,0
STARLINK-30882,2023-178F,2026-06-18T11:37:53.275296,15.34387970,.0001301,53.1610,251.4738,95.8166,264.2985,0,U,58379,999,14534,-.88133E-5,-.674E-5,0
STARLINK-30915,2023-178G,2026-06-20T06:00:42.181344,15.34365487,.00012522,53.1605,154.6136,97.8203,262.2942,0,U,58380,999,14682,.52344028E-4,.1391E-4,0
STARLINK-30923,2023-178H,2026-06-19T12:02:32.986752,15.34540292,.00015103,53.1585,247.1165,14.6722,345.4324,0,U,58381,999,14542,.59796364E-3,.19971E-3,0
STARLINK-30927,2023-178J,2026-06-19T11:16:57.402912,15.34391549,.0002098,53.1568,246.9564,85.6274,274.4969,0,U,58382,999,14547,.89258595E-4,.2639E-4,0
STARLINK-30921,2023-178K,2026-06-20T00:59:53.759616,15.34388676,.0002306,53.1607,244.1263,131.1194,229.0008,0,U,58383,999,14556,.22623824E-4,.387E-5,0
STARLINK-30825,2023-178L,2026-06-19T12:02:15.412992,15.34390288,.00013481,53.1608,246.4195,100.0963,260.0192,0,U,58384,999,14550,.4971908E-5,-.208E-5,0
STARLINK-30930,2023-178M,2026-06-19T11:35:00.066624,15.34396665,.000084,53.1589,246.3259,69.2678,290.8414,0,U,58385,999,14537,.68007855E-4,.1922E-4,0
STARLINK-30929,2023-178N,2026-06-19T11:44:12.503904,15.34373552,.0001223,53.1587,246.8661,74.8786,285.2351,0,U,58386,999,14547,-.93391007E-4,-.3527E-4,0
STARLINK-30898,2023-178P,2026-06-19T13:05:51.423648,15.34388291,.00013163,53.1592,246.5892,67.9630,292.1512,0,U,58387,999,14550,.18753889E-4,.257E-5,0
STARLINK-30913,2023-178Q,2026-06-19T12:44:40.884000,15.34389085,.00010197,53.1595,246.6226,99.9037,260.2081,0,U,58388,999,14550,-.4948341E-5,-.543E-5,0
STARLINK-30938,2023-178R,2026-06-18T22:35:07.499328,15.34396869,.0001415,53.1625,250.7550,97.1051,263.0113,0,U,58389,999,14539,.42985E-4,.1076E-4,0
STARLINK-30868,2023-178S,2026-06-18T22:31:25.388256,15.34399534,.0001253,53.1600,249.3301,84.4583,275.6563,0,U,58390,999,14541,.51065E-4,.1349E-4,0
STARLINK-30916,2023-178T,2026-06-19T11:22:58.897056,15.34392016,.00010495,53.1601,246.8799,96.0296,264.0826,0,U,58391,999,14549,-.36682439E-4,-.1615E-4,0
STARLINK-30939,2023-178V,2026-06-19T12:20:26.599200,15.34388892,.00012214,53.1592,246.5220,105.5586,254.5552,0,U,58393,999,14537,.27268877E-4,.545E-5,0
STARLINK-30887,2023-178W,2026-06-19T11:38:07.153728,15.34389759,.0001309,53.1605,246.8743,87.5941,272.5211,0,U,58394,999,14547,.748355E-6,-.351E-5,0
STARLINK-30934,2023-178X,2026-06-20T04:19:37.352352,15.34388692,.00010392,53.1599,243.6397,94.3567,265.7554,0,U,58395,999,14553,.134296E-6,-.372E-5,0
MALLIGYONG-1,2023-179A,2026-06-20T06:11:27.288672,15.22658106,.00091448,97.3013,52.7188,29.0385,331.1358,0,U,58400,999,14322,.10553787E-3,.239E-4,0
STARLINK-30964,2023-180A,2026-06-20T01:37:06.753792,15.27574697,.00017582,43.0037,194.3502,274.4421,85.6230,0,U,58402,999,14328,-.73033977E-4,-.2271E-4,0
